NORAD_CAT_ID,OBJECT_NAME,OBJECT_TYPE,EPOCH,MEAN_MOTION,ECCENTRICITY,INCLINATION,RA_OF_ASC_NODE,ARG_OF_PERICENTER,MEAN_ANOMALY,BSTAR,MEAN_MOTION_DOT,MEAN_MOTION_DDOT,TLE_LINE0,TLE_LINE1,TLE_LINE2,SEMIMAJOR_AXIS,PERIOD,APOGEE,PERIGEE,DECAYED
54766.0,STARLINK-5471,PAYLOAD,2024-08-02 22:42:13,15.08840644,0.0001855,53.2152,144.6393,113.4202,246.6986,0.00017471,2.494e-05,0.0,0 STARLINK-5471,1 54766U 22175J   24215.94599378  .00002494  00000-0  17471-3 0  9995,2 54766  53.2152 144.6393 0001855 113.4202 246.6986 15.08840644 91797,6917.878,95.438,541.027,538.46,0.0
54766.0,STARLINK-5471,PAYLOAD,2024-08-03 05:03:46,15.08837672,0.0001537,53.2161,143.451,98.6797,261.437,1.4129e-05,-6.3e-07,0.0,0 STARLINK-5471,1 54766U 22175J   24216.21095488 -.00000063  00000-0  14129-4 0  9998,2 54766  53.2161 143.4510 0001537  98.6797 261.4370 15.08837672 89678,6917.888,95.438,540.816,538.689,0.0
54766.0,STARLINK-5471,PAYLOAD,2024-08-03 22:33:01,15.08842614,0.0001532,53.2167,140.1806,94.9785,265.1382,0.00027856,4.148e-05,0.0,0 STARLINK-5471,1 54766U 22175J   24216.93959620  .00004148  00000-0  27856-3 0  9991,2 54766  53.2167 140.1806 0001532  94.9785 265.1382 15.08842614 91946,6917.872,95.437,540.797,538.678,0.0
54766.0,STARLINK-5471,PAYLOAD,2024-08-04 01:43:47,15.088452,0.0001466,53.2174,139.5858,94.9532,265.1628,0.00035138,5.309e-05,0.0,0 STARLINK-5471,1 54766U 22175J   24217.07207586  .00005309  00000-0  35138-3 0  9996,2 54766  53.2174 139.5858 0001466  94.9532 265.1628 15.08845200 91968,6917.864,95.437,540.744,538.715,0.0
54766.0,STARLINK-5471,PAYLOAD,2024-08-04 19:13:01,15.08849489,0.0001492,53.2175,136.3151,93.0159,267.1004,0.00041507,6.326e-05,0.0,0 STARLINK-5471,1 54766U 22175J   24217.80071551  .00006326  00000-0  41507-3 0  9995,2 54766  53.2175 136.3151 0001492  93.0159 267.1004 15.08849489 89919,6917.851,95.437,540.749,538.684,0.0
54766.0,STARLINK-5471,PAYLOAD,2024-08-04 22:23:47,15.08854259,0.0001485,53.2175,135.7203,93.377,266.7392,0.00053738,8.278e-05,0.0,0 STARLINK-5471,1 54766U 22175J   24217.93319423  .00008278  00000-0  53738-3 0  9999,2 54766  53.2175 135.7203 0001485  93.3770 266.7392 15.08854259 92093,6917.837,95.437,540.729,538.675,0.0
54766.0,STARLINK-5471,PAYLOAD,2024-08-05 11:06:52,15.08872074,0.0001429,53.218,133.3463,90.1989,269.9167,0.00088509,0.00013839,0.0,0 STARLINK-5471,1 54766U 22175J   24218.46310453  .00013839  00000-0  88509-3 0  9995,2 54766  53.2180 133.3463 0001429  90.1989 269.9167 15.08872074 90016,6917.782,95.436,540.636,538.659,0.0
54766.0,STARLINK-5471,PAYLOAD,2024-08-05 22:14:35,15.08793163,0.0001505,53.2169,131.2625,63.1038,297.0108,-0.0014392,-0.0002309,0.0,0 STARLINK-5471,1 54766U 22175J   24218.92680449 -.00023090  00000-0 -14392-2 0  9991,2 54766  53.2169 131.2625 0001505  63.1038 297.0108 15.08793163 92245,6918.024,95.441,540.93,538.847,0.0
54766.0,STARLINK-5471,PAYLOAD,2024-08-06 03:00:45,15.08801878,0.0001505,53.2182,130.3732,77.828,282.288,-0.00071906,-0.00011702,0.0,0 STARLINK-5471,1 54766U 22175J   24219.12553056 -.00011702  00000-0 -71906-3 0  9999,2 54766  53.2182 130.3732 0001505  77.8280 282.2880 15.08801878 90110,6917.997,95.44,540.903,538.821,0.0
54766.0,STARLINK-5471,PAYLOAD,2024-08-06 22:05:23,15.08840705,7.6e-05,53.2166,126.8051,66.32,293.7872,0.00086047,0.00013433,0.0,0 STARLINK-5471,1 54766U 22175J   24219.92041355  .00013433  00000-0  86047-3 0  9994,2 54766  53.2166 126.8051 0000760  66.3200 293.7872 15.08840705 92395,6917.878,95.438,540.269,539.217,0.0
54766.0,STARLINK-5471,PAYLOAD,2024-08-07 01:16:10,15.08868551,0.0001472,53.2159,126.2041,52.2028,307.9098,0.002212,0.00035119,0.0,0 STARLINK-5471,1 54766U 22175J   24220.05289357  .00035119  00000-0  22120-2 0  9992,2 54766  53.2159 126.2041 0001472  52.2028 307.9098 15.08868551 90253,6917.793,95.436,540.676,538.64,0.0
54766.0,STARLINK-5471,PAYLOAD,2024-08-08 01:06:56,15.08899537,0.0001453,53.2145,121.7468,66.2646,293.8498,0.0031411,0.0005014,0.0,0 STARLINK-5471,1 54766U 22175J   24221.04648421  .00050140  00000-0  31411-2 0  9997,2 54766  53.2145 121.7468 0001453  66.2646 293.8498 15.08899537 92562,6917.698,95.434,540.569,538.558,0.0
54766.0,STARLINK-5471,PAYLOAD,2024-08-08 21:46:56,15.08856007,0.0002041,53.218,117.8714,160.4194,199.6877,0.0015466,0.00024423,0.0,0 STARLINK-5471,1 54766U 22175J   24221.90759703  .00024423  00000-0  15466-2 0  9995,2 54766  53.2180 117.8714 0002041 160.4194 199.6877 15.08856007 90534,6917.831,95.437,541.108,538.285,0.0
54766.0,STARLINK-5471,PAYLOAD,2024-08-08 23:22:19,15.08842372,0.0001409,53.215,117.5842,108.7137,251.4008,0.0019829,0.00031413,0.0,0 STARLINK-5471,1 54766U 22175J   24221.97384239  .00031413  00000-0  19829-2 0  9994,2 54766  53.2150 117.5842 0001409 108.7137 251.4008 15.08842372 92703,6917.873,95.437,540.713,538.763,0.0
54766.0,STARLINK-5471,PAYLOAD,2024-08-09 10:30:01,15.08875203,0.0001047,53.2147,115.4979,111.4897,248.6207,0.0018587,0.00029446,0.0,0 STARLINK-5471,1 54766U 22175J   24222.43751336  .00029446  00000-0  18587-2 0  9995,2 54766  53.2147 115.4979 0001047 111.4897 248.6207 15.08875203 92774,6917.773,95.435,540.362,538.913,0.0
54766.0,STARLINK-5471,PAYLOAD,2024-08-09 16:51:34,15.08840259,0.0002204,53.2123,114.3119,95.2154,264.9089,0.00077745,0.00012107,0.0,0 STARLINK-5471,1 54766U 22175J   24222.70248057  .00012107  00000-0  77745-3 0  9994,2 54766  53.2123 114.3119 0002204  95.2154 264.9089 15.08840259 90650,6917.88,95.438,541.269,538.22,0.0
54766.0,STARLINK-5471,PAYLOAD,2024-08-09 21:37:43,15.08834373,0.0001467,53.2137,113.4203,97.2344,262.8815,0.0015392,0.0002429,0.0,0 STARLINK-5471,1 54766U 22175J   24222.90120150  .00024290  00000-0  15392-2 0  9994,2 54766  53.2137 113.4203 0001467  97.2344 262.8815 15.08834373 92849,6917.898,95.438,540.777,538.748,0.0
54766.0,STARLINK-5471,PAYLOAD,2024-08-10 02:23:53,15.0884516,0.0001293,53.2149,112.5273,105.5774,254.5361,0.0025114,0.00039913,0.0,0 STARLINK-5471,1 54766U 22175J   24223.09992158  .00039913  00000-0  25114-2 0  9991,2 54766  53.2149 112.5273 0001293 105.5774 254.5361 15.08845160 92879,6917.865,95.437,540.624,538.835,0.0
54766.0,STARLINK-5471,PAYLOAD,2024-08-10 21:28:30,15.08868053,0.0002101,53.2154,108.9535,125.1996,234.9193,0.0020974,0.00033276,0.0,0 STARLINK-5471,1 54766U 22175J   24223.89479934  .00033276  00000-0  20974-2 0  9996,2 54766  53.2154 108.9535 0002101 125.1996 234.9193 15.08868053 90833,6917.795,95.436,541.113,538.206,0.0
54766.0,STARLINK-5471,PAYLOAD,2024-08-11 16:33:07,15.0887845,0.0001974,53.2161,105.3908,81.0799,279.0416,0.0026389,0.00042005,0.0,0 STARLINK-5471,1 54766U 22175J   24224.68967359  .00042005  00000-0  26389-2 0  9993,2 54766  53.2161 105.3908 0001974  81.0799 279.0416 15.08878450 90957,6917.763,95.435,540.993,538.262,0.0
54766.0,STARLINK-5471,PAYLOAD,2024-08-12 02:05:25,15.0886662,6.3e-05,53.2172,103.606,177.1413,182.9583,0.0014602,0.00023044,0.0,0 STARLINK-5471,1 54766U 22175J   24225.08710538  .00023044  00000-0  14602-2 0  9990,2 54766  53.2172 103.6060 0000630 177.1413 182.9583 15.08866620 91018,6917.799,95.436,540.1,539.228,0.0
54766.0,STARLINK-5471,PAYLOAD,2024-08-12 08:26:57,15.08900808,0.0001677,53.2164,102.4184,212.1344,147.9546,0.0019424,0.00030813,0.0,0 STARLINK-5471,1 54766U 22175J   24225.35204974  .00030813  00000-0  19424-2 0  9991,2 54766  53.2164 102.4184 0001677 212.1344 147.9546 15.08900808 91059,6917.695,95.434,540.72,538.399,0.0
54766.0,STARLINK-5471,PAYLOAD,2024-08-12 21:10:03,15.08860089,0.0001562,53.2162,100.0384,110.8124,249.3035,0.002616,0.00041615,0.0,0 STARLINK-5471,1 54766U 22175J   24225.88198735  .00041615  00000-0  26160-2 0  9993,2 54766  53.2162 100.0384 0001562 110.8124 249.3035 15.08860089 91131,6917.819,95.436,540.765,538.603,0.0
54766.0,STARLINK-5471,PAYLOAD,2024-08-12 22:45:26,15.08874639,0.0001439,53.2162,99.7416,102.8731,257.2422,0.0035196,0.00056227,0.0,0 STARLINK-5471,1 54766U 22175J   24225.94822638  .00056227  00000-0  35196-2 0  9990,2 54766  53.2162  99.7416 0001439 102.8731 257.2422 15.08874639 93304,6917.775,95.435,540.635,538.644,0.0
54766.0,STARLINK-5471,PAYLOAD,2024-08-13 00:20:50,15.08873768,0.0001331,53.216,99.4446,103.5074,256.6067,0.0062506,0.00100708,0.0,0 STARLINK-5471,1 54766U 22175J   24226.01446841  .00100708  00000-0  62506-2 0  9996,2 54766  53.2160  99.4446 0001331 103.5074 256.6067 15.08873768 91152,6917.777,95.435,540.563,538.721,0.0
54766.0,STARLINK-5471,PAYLOAD,2024-08-13 14:39:22,15.08724221,0.000102,53.2172,96.7685,124.7427,235.3661,0.00151,0.00023749,0.0,0 STARLINK-5471,1 54766U 22175J   24226.61067592  .00023749  00000-0  15100-2 0  9991,2 54766  53.2172  96.7685 0001020 124.7427 235.3661 15.08724221 93405,6918.234,95.445,540.805,539.394,0.0
54766.0,STARLINK-5471,PAYLOAD,2024-08-13 22:36:18,15.08829769,0.0001091,53.2151,95.2826,65.7703,294.3403,0.0027797,0.00044216,0.0,0 STARLINK-5471,1 54766U 22175J   24226.94188191  .00044216  00000-0  27797-2 0  9993,2 54766  53.2151  95.2826 0001091  65.7703 294.3403 15.08829769 93459,6917.912,95.438,540.531,539.022,0.0
54766.0,STARLINK-5471,PAYLOAD,2024-08-14 00:11:41,15.08825096,0.0001304,53.2167,94.985,79.2658,280.8481,0.004315,0.0006903,0.0,0 STARLINK-5471,1 54766U 22175J   24227.00812029  .00069030  00000-0  43150-2 0  9997,2 54766  53.2167  94.9850 0001304  79.2658 280.8481 15.08825096 91302,6917.926,95.438,540.693,538.889,0.0
54766.0,STARLINK-5471,PAYLOAD,2024-08-14 08:08:36,15.08871792,0.0001473,53.2169,93.4992,73.4713,286.644,0.0029714,0.00047361,0.0,0 STARLINK-5471,1 54766U 22175J   24227.33931554  .00047361  00000-0  29714-2 0  9991,2 54766  53.2169  93.4992 0001473  73.4713 286.6440 15.08871792 93518,6917.783,95.436,540.667,538.629,0.0
54766.0,STARLINK-5471,PAYLOAD,2024-08-14 19:16:18,15.08875974,0.0001469,53.2167,91.4183,77.4376,282.678,0.0010821,0.00016992,0.0,0 STARLINK-5471,1 54766U 22175J   24227.80298709  .00016992  00000-0  10821-2 0  9996,2 54766  53.2167  91.4183 0001469  77.4376 282.6780 15.08875974 91427,6917.77,95.435,540.652,538.619,0.0
